satname,norad_id,inclination_deg,eccentricity,mean_motion_rev_per_day,perigee_km,apogee_km,l1,l2
STARLINK-1337,45582,53.0534,0.0001479,15.06406322,546.1679258005606,548.2164381725925,1 45582U 20025BD  25325.87188014  .00004084  00000+0  29289-3 0  9995,2 45582  53.0534 200.6335 0001479  95.4120 264.7037 15.06406322309254
STARLINK-1347,45586,53.0505,0.0009608,15.34638649,455.4220191268614,468.56601488914475,1 45586U 20025BH  25325.83475576  .00065151  00000+0  19056-2 0  9999,2 45586  53.0505 182.2896 0009608  89.4113 270.7989 15.34638649309501
STARLINK-1360,45588,53.0406,0.0001906,15.81325296,325.4139010425979,327.96978179694725,1 45588U 20025BK  25325.91670139  .00160487  00000+0  78495-3 0  9993,2 45588  53.0406  93.5453 0001906 272.3577  48.9939 15.81325296  5984
STARLINK-1364,45589,53.0539,0.0001509,15.06409543,546.1372794882191,548.2273408560286,1 45589U 20025BL  25325.87555529  .00002241  00000+0  16925-3 0  9997,2 45589  53.0539 200.6194 0001509  78.4067 281.7092 15.06409543309252
STARLINK-1365,45590,53.054,0.0001684,15.06400149,546.0448726545201,548.3773298950291,1 45590U 20025BM  25325.82487442  .00001185  00000+0  98467-4 0  9990,2 45590  53.0540 230.8403 0001684  95.0756 265.0426 15.06400149308841
STARLINK-1443,45660,53.053,0.0001486,15.06413647,546.1406315841677,548.1988327449671,1 45660U 20035D   25325.87648159  .00002678  00000+0  19853-3 0  9997,2 45660  53.0530 190.6136 0001486  86.6014 273.5145 15.06413647302480
STARLINK-1446,45663,53.0241,0.0001911,15.356547,457.669974350747,460.28311914831556,1 45663U 20035G   25325.81676416  .00066119  00000+0  18743-2 0  9997,2 45663  53.0241 149.4974 0001911 131.4875 228.6290 15.35654700303056
STARLINK-1448,45665,53.0525,0.0001639,15.06405992,546.0581317634624,548.3282550008535,1 45665U 20035J   25325.88017419  .00004108  00000+0  29449-3 0  9994,2 45665  53.0525 190.5913 0001639  83.0475 277.0700 15.06405992302472
STARLINK-1451,45668,53.0545,0.0001594,15.0639176,546.1329078809104,548.340717052326,1 45668U 20035M   25325.88389749 -.00000574  00000+0 -19648-4 0  9991,2 45668  53.0545 190.8947 0001594  87.3860 272.7312 15.06391760302481
STARLINK-1452,45669,53.0387,0.0012591,15.28720584,471.0012790221399,488.27052274113976,1 45669U 20035N   25325.82283301  .00053627  00000+0  18897-2 0  9991,2 45669  53.0387 168.9245 0012591  92.1089 268.1351 15.28720584302788
STARLINK-1453,45670,53.054,0.000154,15.09940517,535.3167561726004,537.4464278989471,1 45670U 20035P   25325.81701995  .00005511  00000+0  35344-3 0  9992,2 45670  53.0540 160.7692 0001540  91.9685 268.1482 15.09940517302782
STARLINK-1454,45671,53.0554,0.0001632,15.06402451,546.0738303277667,548.3342616451773,1 45671U 20035Q   25325.83962425  .00000823  00000+0  74150-4 0  9992,2 45671  53.0554 190.7799 0001632  91.3545 268.7631 15.06402451302464
STARLINK-1456,45673,53.0524,0.0001398,15.06415551,546.1957397076794,548.132053838417,1 45673U 20035S   25325.85437101  .00007095  00000+0  49450-3 0  9996,2 45673  53.0524 190.7130 0001398  73.0517 287.0625 15.06415551302481
STARLINK-1457,45674,53.0527,0.0001023,15.43158769,436.0963761563644,437.4907109455753,1 45674U 20035T   25325.91670139  .00082469  00000+0  18221-2 0  9993,2 45674  53.0527 187.1523 0001023  99.1891  79.4041 15.43158769  5481
STARLINK-1458,45675,53.0528,0.000161,15.0641714,546.0440541446624,548.2739994652939,1 45675U 20035U   25325.85068191  .00006793  00000+0  47427-3 0  9993,2 45675  53.0528 190.7270 0001610  78.6977 281.4193 15.06417140302440
STARLINK-1460,45676,53.0526,0.0001425,15.06400579,546.222921470604,548.1966453038685,1 45676U 20035V   25325.82119288  .00003863  00000+0  27810-3 0  9994,2 45676  53.0526 190.8587 0001425  89.1437 270.9716 15.06400579302434
STARLINK-1392,45677,53.054,0.0001484,15.06407387,546.1611995734957,548.2166363059414,1 45677U 20035W   25325.83224972  .00002796  00000+0  20648-3 0  9999,2 45677  53.0540 190.8114 0001484  94.6203 265.4955 15.06407387302476
STARLINK-1394,45679,53.0526,0.0001476,15.06399494,546.1909270797814,548.2352904318859,1 45679U 20035Y   25325.03332733  .00001671  00000+0  13104-3 0  9998,2 45679  53.0526 184.3963 0001476  91.7607 268.3551 15.06399494302494
STARLINK-1402,45685,53.0509,0.0004359,15.28978577,475.8754789898785,481.8534128504316,1 45685U 20035AE  25325.86226300  .00049643  00000+0  17408-2 0  9999,2 45685  53.0509 170.2188 0004359 149.0836 211.0420 15.28978577302779
STARLINK-1404,45686,53.0531,0.0001438,15.06403556,546.2047957764635,548.1965228872878,1 45686U 20035AF  25325.85529300  .00002407  00000+0  18043-3 0  9999,2 45686  53.0531 180.7085 0001438  95.2942 264.8211 15.06403556302626
STARLINK-1413,45689,53.0523,0.0001562,15.0638951,546.1619639973487,548.3254529306732,1 45689U 20035AJ  25325.87371126  .00001694  00000+0  13266-3 0  9994,2 45689  53.0523 180.6220 0001562  92.7525 267.3642 15.06389510302536
STARLINK-1417,45693,53.0515,0.0001672,15.06577218,545.5106360613863,547.8262910083922,1 45693U 20035AN  25325.86976713  .00017708  00000+0  11990-2 0  9995,2 45693  53.0515 180.6436 0001672  83.1998 276.9181 15.06577218302618
STARLINK-1420,45695,53.0517,0.0001488,15.06406201,546.1620637941187,548.2230418690415,1 45695U 20035AQ  25325.87092517  .00002594  00000+0  19298-3 0  9996,2 45695  53.0517 160.6258 0001488  93.0412 267.0747 15.06406201302902
STARLINK-1422,45696,53.0519,0.0001626,15.06413988,546.0426323599404,548.2947417693731,1 45696U 20035AR  25325.88108620  .00004571  00000+0  32543-3 0  9996,2 45696  53.0519 180.5928 0001626  89.1929 270.9247 15.06413988302619
STARLINK-1351,45697,53.0523,0.000124,15.06401412,546.3484876804578,548.0659730495881,1 45697U 20035AS  25325.79078192  .00000552  00000+0  55940-4 0  9999,2 45697  53.0523 160.9970 0001240  89.4471 270.6660 15.06401412302896
STARLINK-1398,45699,53.0491,0.0003577,15.55376445,398.6336526704399,403.48348918188003,1 45699U 20035AU  25325.67941530  .00055852  00000+0  80821-3 0  9991,2 45699  53.0491 114.0627 0003577 178.5054 181.5967 15.55376445303547
STARLINK-1400,45700,53.0526,0.0001607,15.06413034,546.0587137997782,548.2845079873186,1 45700U 20035AV  25325.83132253  .00004413  00000+0  31484-3 0  9994,2 45700  53.0526 160.8129 0001607  89.8541 270.2632 15.06413034302896
STARLINK-1403,45701,53.0519,0.0001453,15.06403788,546.1936968295913,548.2061997467636,1 45701U 20035AW  25325.79448715  .00003540  00000+0  25639-3 0  9998,2 45701  53.0519 160.9802 0001453  94.4819 265.6336 15.06403788302880
STARLINK-1407,45703,53.0405,0.0010699,15.44026636,426.9510502546336,441.52817372897334,1 45703U 20035AY  25325.80109465  .00025804  00000+0  56301-3 0  9995,2 45703  53.0405 114.0633 0010699 123.8382 236.3643 15.44026636303558
STARLINK-1411,45706,53.0516,0.0001008,15.43715,434.46962921214526,435.8431891634382,1 45706U 20035BB  25325.81557016  .00155377  00000+0  33294-2 0  9992,2 45706  53.0516 141.2190 0001008   8.4934 351.6089 15.43715000303160
STARLINK-1423,45710,53.0534,0.0001574,15.06400002,546.1215019465108,548.3016016706206,1 45710U 20035BF  25325.82026917  .00001462  00000+0  11700-3 0  9993,2 45710  53.0534 160.8649 0001574  90.7695 269.3474 15.06400002302891
STARLINK-1433,45711,53.053,0.0001565,15.06402704,546.1194548277754,548.2870863324661,1 45711U 20035BG  25325.86818609  .00001468  00000+0  11740-3 0  9995,2 45711  53.0530 160.6474 0001565  88.2171 271.8997 15.06402704302892
STARLINK-1434,45712,53.0477,0.0006981,15.16828285,510.62121749614016,520.2460207945905,1 45712U 20035BH  25325.69425220  .00034026  00000+0  17164-2 0  9991,2 45712  53.0477 156.1374 0006981 123.8775 236.2883 15.16828285302958
STARLINK-1465,45731,53.0562,0.0001436,15.06399579,546.2183680047347,548.2073284811495,1 45731U 20038B   25325.50328020  .00002048  00000+0  15635-3 0  9996,2 45731  53.0562   2.2820 0001436  91.1222 268.9932 15.06399579299887
STARLINK-1471,45735,53.0508,0.000136,15.42033267,439.1819212750861,441.03648424223593,1 45735U 20038F   25325.36636926  .00023888  00000+0  55899-3 0  9992,2 45735  53.0508 298.0128 0001360  73.3169 286.7985 15.42033267300782
STARLINK-1474,45738,53.0358,0.0004295,15.71161435,352.6843668676529,358.468626761417,1 45738U 20038J   25325.80353087  .00087742  00000+0  67881-3 0  9991,2 45738  53.0358 248.9998 0004295  72.2993 287.8492 15.71161435301507
STARLINK-1475,45739,53.0425,0.0005257,15.91486129,294.6137202167083,301.6331404331522,1 45739U 20038K   25325.91670139  .00356008  58911-4  10846-2 0  9995,2 45739  53.0425 212.6312 0005257 119.9569 226.6289 15.91486129  6057
STARLINK-1480,45741,53.0553,0.0001379,15.06396693,546.2666864716994,548.1767003993491,1 45741U 20038M   25325.48485590  .00002052  00000+0  15662-3 0  9995,2 45741  53.0553   2.3670 0001379  92.8733 267.2414 15.06396693299895
STARLINK-1500,45744,53.0414,0.0001456,15.28727993,478.6152548321079,480.6122318485686,1 45744U 20038Q   25325.29672928  .00022114  00000+0  79138-3 0  9999,2 45744  53.0414 338.8053 0001456 326.6743  33.4164 15.28727993300209
STARLINK-1504,45746,53.0282,0.0002463,15.42461356,437.1685805925499,440.5266272084309,1 45746U 20038S   25325.32092691  .00060762  00000+0  13805-2 0  9997,2 45746  53.0282 301.3165 0002463  15.8303 344.2778 15.42461356300726
STARLINK-1506,45747,53.0658,0.0001953,15.22129498,498.07535558565905,500.7617287804351,1 45747U 20038T   25325.27496551  .00039788  00000+0  17189-2 0  9998,2 45747  53.0658 342.4011 0001953 337.3590  22.7319 15.22129498300155
STARLINK-1464,45751,53.0561,0.0001333,15.06393487,546.3083677935156,548.154671040792,1 45751U 20038X   25325.28765215  .00001111  00000+0  93451-4 0  9997,2 45751  53.0561 343.2551 0001333  92.8560 267.2582 15.06393487300143
STARLINK-1477,45754,53.0553,0.0003684,15.07842874,540.2432131297246,545.3425542680334,1 45754U 20038AA  25325.28969003  .00033838  00000+0  21923-2 0  9995,2 45754  53.0553 343.1095 0003684  39.8493 320.2767 15.07842874300141
